[
    {
        "Altitude(m)": 604221.1946183878,
        "Argument of Periapsis(deg)": 0.0,
        "Eccentricity": 0.0,
        "Inclination(deg)": 60.0,
        "Latitude(deg)": 14.117190487908385,
        "Longitude(deg)": -51.665865061855946,
        "Mean Anomaly(deg)": 16.363600000000005,
        "RAAN(deg)": 40.0,
        "Satellite Name": "Test1 177",
        "Satellite Number": 177,
        "Semi-Major Axis(m)": 6980739.136638005,
        "Time(s)": 0
    },
    {
        "Altitude(m)": 604235.3352649157,
        "Argument of Periapsis(deg)": 0.00010418945913296404,
        "Eccentricity": 0.0,
        "Inclination(deg)": 60.0,
        "Latitude(deg)": 14.651587637404665,
        "Longitude(deg)": -51.377418934953646,
        "Mean Anomaly(deg)": 16.98370614546183,
        "RAAN(deg)": 39.99957995086026,
        "Satellite Name": "Test1 177",
        "Satellite Number": 177,
        "Semi-Major Axis(m)": 6980739.136638005,
        "Time(s)": 10
    }
]